[{"OBJECT_NAME":"SL-12 R/B(2)","OBJECT_ID":"2008-033D","EPOCH":"2026-04-05T14:20:04.079616","MEAN_MOTION":1.0028175,"ECCENTRICITY":0.0031602,"INCLINATION":10.4258,"RA_OF_ASC_NODE":41.8214,"ARG_OF_PERICENTER":336.8119,"MEAN_ANOMALY":90.0697,"EPHEMERIS_TYPE":0,"CLASSIFICATION_TYPE":"U","NORAD_CAT_ID":33111,"ELEMENT_SET_NO":999,"REV_AT_EPOCH":6508,"BSTAR":0,"MEAN_MOTION_DOT":3.8e-7,"MEAN_MOTION_DDOT":0},{"OBJECT_NAME":"INTELSAT 25 (IS-25)","OBJECT_ID":"2008-034A","EPOCH":"2026-04-05T16:01:08.232096","MEAN_MOTION":1.00270899,"ECCENTRICITY":0.0002837,"INCLINATION":2.5205,"RA_OF_ASC_NODE":81.1756,"ARG_OF_PERICENTER":255.0194,"MEAN_ANOMALY":66.5529,"EPHEMERIS_TYPE":0,"CLASSIFICATION_TYPE":"U","NORAD_CAT_ID":33153,"ELEMENT_SET_NO":999,"REV_AT_EPOCH":6496,"BSTAR":0,"MEAN_MOTION_DOT":-2.21e-6,"MEAN_MOTION_DDOT":0},{"OBJECT_NAME":"ECHOSTAR 11","OBJECT_ID":"2008-035A","EPOCH":"2026-04-05T15:38:47.875200","MEAN_MOTION":1.00271752,"ECCENTRICITY":0.0002717,"INCLINATION":0.8173,"RA_OF_ASC_NODE":84.9477,"ARG_OF_PERICENTER":269.6096,"MEAN_ANOMALY":324.2965,"EPHEMERIS_TYPE":0,"CLASSIFICATION_TYPE":"U","NORAD_CAT_ID":33207,"ELEMENT_SET_NO":999,"REV_AT_EPOCH":5048,"BSTAR":0,"MEAN_MOTION_DOT":-5.6e-7,"MEAN_MOTION_DDOT":0},{"OBJECT_NAME":"SUPERBIRD-C2","OBJECT_ID":"2008-038A","EPOCH":"2026-04-05T20:14:17.131776","MEAN_MOTION":1.00272959,"ECCENTRICITY":0.0003475,"INCLINATION":2.1744,"RA_OF_ASC_NODE":82.1468,"ARG_OF_PERICENTER":357.7591,"MEAN_ANOMALY":193.8187,"EPHEMERIS_TYPE":0,"CLASSIFICATION_TYPE":"U","NORAD_CAT_ID":33274,"ELEMENT_SET_NO":999,"REV_AT_EPOCH":10500,"BSTAR":0,"MEAN_MOTION_DOT":-3.03e-6,"MEAN_MOTION_DDOT":0},{"OBJECT_NAME":"INMARSAT 4-F3","OBJECT_ID":"2008-039A","EPOCH":"2026-04-05T09:37:38.648928","MEAN_MOTION":1.00272246,"ECCENTRICITY":0.0002735,"INCLINATION":4.2318,"RA_OF_ASC_NODE":31.3483,"ARG_OF_PERICENTER":350.7457,"MEAN_ANOMALY":218.0409,"EPHEMERIS_TYPE":0,"CLASSIFICATION_TYPE":"U","NORAD_CAT_ID":33278,"ELEMENT_SET_NO":999,"REV_AT_EPOCH":4581,"BSTAR":0,"MEAN_MOTION_DOT":-1.38e-6,"MEAN_MOTION_DDOT":0},{"OBJECT_NAME":"NIMIQ 4","OBJECT_ID":"2008-044A","EPOCH":"2026-04-05T19:11:59.038368","MEAN_MOTION":1.00272689,"ECCENTRICITY":0.0002384,"INCLINATION":0.0186,"RA_OF_ASC_NODE":235.4564,"ARG_OF_PERICENTER":128.0148,"MEAN_ANOMALY":36.6167,"EPHEMERIS_TYPE":0,"CLASSIFICATION_TYPE":"U","NORAD_CAT_ID":33373,"ELEMENT_SET_NO":999,"REV_AT_EPOCH":6425,"BSTAR":0,"MEAN_MOTION_DOT":-2.19e-6,"MEAN_MOTION_DDOT":0},{"OBJECT_NAME":"GALAXY 19 (G-19)","OBJECT_ID":"2008-045A","EPOCH":"2026-04-05T15:42:25.027776","MEAN_MOTION":1.00272657,"ECCENTRICITY":0.0002944,"INCLINATION":0.0186,"RA_OF_ASC_NODE":245.1199,"ARG_OF_PERICENTER":139.4102,"MEAN_ANOMALY":308.0342,"EPHEMERIS_TYPE":0,"CLASSIFICATION_TYPE":"U","NORAD_CAT_ID":33376,"ELEMENT_SET_NO":999,"REV_AT_EPOCH":6417,"BSTAR":0,"MEAN_MOTION_DOT":-1.38e-6,"MEAN_MOTION_DDOT":0},{"OBJECT_NAME":"ASTRA 1M","OBJECT_ID":"2008-057A","EPOCH":"2026-04-05T19:40:56.260704","MEAN_MOTION":1.00272778,"ECCENTRICITY":0.0003052,"INCLINATION":0.1112,"RA_OF_ASC_NODE":75.4493,"ARG_OF_PERICENTER":357.1367,"MEAN_ANOMALY":76.1269,"EPHEMERIS_TYPE":0,"CLASSIFICATION_TYPE":"U","NORAD_CAT_ID":33436,"ELEMENT_SET_NO":999,"REV_AT_EPOCH":4501,"BSTAR":0,"MEAN_MOTION_DOT":1.23e-6,"MEAN_MOTION_DDOT":0},{"OBJECT_NAME":"EUTELSAT HOTBIRD 13C","OBJECT_ID":"2008-065A","EPOCH":"2026-04-05T19:21:05.664384","MEAN_MOTION":1.00273225,"ECCENTRICITY":0.0004166,"INCLINATION":2.7644,"RA_OF_ASC_NODE":80.0257,"ARG_OF_PERICENTER":304.6381,"MEAN_ANOMALY":49.4327,"EPHEMERIS_TYPE":0,"CLASSIFICATION_TYPE":"U","NORAD_CAT_ID":33459,"ELEMENT_SET_NO":999,"REV_AT_EPOCH":4661,"BSTAR":0,"MEAN_MOTION_DOT":-2.8e-6,"MEAN_MOTION_DDOT":0},{"OBJECT_NAME":"EXPRESS-AM44","OBJECT_ID":"2009-007A","EPOCH":"2026-04-05T19:32:19.586976","MEAN_MOTION":1.00272479,"ECCENTRICITY":0.0004347,"INCLINATION":3.278,"RA_OF_ASC_NODE":79.2648,"ARG_OF_PERICENTER":297.8332,"MEAN_ANOMALY":99.0978,"EPHEMERIS_TYPE":0,"CLASSIFICATION_TYPE":"U","NORAD_CAT_ID":33595,"ELEMENT_SET_NO":999,"REV_AT_EPOCH":5156,"BSTAR":0,"MEAN_MOTION_DOT":-8.6e-7,"MEAN_MOTION_DDOT":0},{"OBJECT_NAME":"NSS-9","OBJECT_ID":"2009-008A","EPOCH":"2026-04-05T18:45:01.622592","MEAN_MOTION":1.00272769,"ECCENTRICITY":0.0002227,"INCLINATION":1.0743,"RA_OF_ASC_NODE":83.2906,"ARG_OF_PERICENTER":286.6065,"MEAN_ANOMALY":288.4977,"EPHEMERIS_TYPE":0,"CLASSIFICATION_TYPE":"U","NORAD_CAT_ID":33749,"ELEMENT_SET_NO":999,"REV_AT_EPOCH":6279,"BSTAR":0,"MEAN_MOTION_DOT":7.4e-7,"MEAN_MOTION_DDOT":0},{"OBJECT_NAME":"TELSTAR 11N","OBJECT_ID":"2009-009A","EPOCH":"2026-04-05T19:24:42.816096","MEAN_MOTION":1.00272802,"ECCENTRICITY":0.0002388,"INCLINATION":0.0161,"RA_OF_ASC_NODE":184.498,"ARG_OF_PERICENTER":186.3851,"MEAN_ANOMALY":76.8478,"EPHEMERIS_TYPE":0,"CLASSIFICATION_TYPE":"U","NORAD_CAT_ID":34111,"ELEMENT_SET_NO":999,"REV_AT_EPOCH":4551,"BSTAR":0,"MEAN_MOTION_DOT":-2.49e-6,"MEAN_MOTION_DDOT":0},{"OBJECT_NAME":"RADUGA-1 8","OBJECT_ID":"2009-010A","EPOCH":"2026-04-05T00:52:54.221088","MEAN_MOTION":0.99825419,"ECCENTRICITY":0.00106003,"INCLINATION":11.9737,"RA_OF_ASC_NODE":42.3922,"ARG_OF_PERICENTER":20.5224,"MEAN_ANOMALY":168.1152,"EPHEMERIS_TYPE":0,"CLASSIFICATION_TYPE":"U","NORAD_CAT_ID":34264,"ELEMENT_SET_NO":999,"REV_AT_EPOCH":6244,"BSTAR":0,"MEAN_MOTION_DOT":7.1e-7,"MEAN_MOTION_DDOT":0},{"OBJECT_NAME":"SL-12 R/B(2)","OBJECT_ID":"2009-010B","EPOCH":"2026-04-05T07:10:38.676000","MEAN_MOTION":0.99995174,"ECCENTRICITY":0.00038319,"INCLINATION":11.9673,"RA_OF_ASC_NODE":42.3291,"ARG_OF_PERICENTER":300.9602,"MEAN_ANOMALY":225.8127,"EPHEMERIS_TYPE":0,"CLASSIFICATION_TYPE":"U","NORAD_CAT_ID":34265,"ELEMENT_SET_NO":999,"REV_AT_EPOCH":6246,"BSTAR":0,"MEAN_MOTION_DOT":-1.38e-6,"MEAN_MOTION_DDOT":0},{"OBJECT_NAME":"WGS F2 (USA 204)","OBJECT_ID":"2009-017A","EPOCH":"2026-04-05T14:43:47.169696","MEAN_MOTION":1.00269989,"ECCENTRICITY":3.52e-5,"INCLINATION":0.013,"RA_OF_ASC_NODE":213.7312,"ARG_OF_PERICENTER":216.045,"MEAN_ANOMALY":42.579,"EPHEMERIS_TYPE":0,"CLASSIFICATION_TYPE":"U","NORAD_CAT_ID":34713,"ELEMENT_SET_NO":999,"REV_AT_EPOCH":4489,"BSTAR":0,"MEAN_MOTION_DOT":0,"MEAN_MOTION_DDOT":0},{"OBJECT_NAME":"SES-7 (PROTOSTAR 2)","OBJECT_ID":"2009-027A","EPOCH":"2026-04-05T20:06:17.897760","MEAN_MOTION":1.00271979,"ECCENTRICITY":0.0001864,"INCLINATION":0.0927,"RA_OF_ASC_NODE":78.5575,"ARG_OF_PERICENTER":245.5108,"MEAN_ANOMALY":279.8884,"EPHEMERIS_TYPE":0,"CLASSIFICATION_TYPE":"U","NORAD_CAT_ID":34941,"ELEMENT_SET_NO":999,"REV_AT_EPOCH":6190,"BSTAR":0,"MEAN_MOTION_DOT":-3.43e-6,"MEAN_MOTION_DDOT":0},{"OBJECT_NAME":"MEASAT-3A","OBJECT_ID":"2009-032A","EPOCH":"2026-04-05T18:38:24.794304","MEAN_MOTION":1.00272322,"ECCENTRICITY":0.0003214,"INCLINATION":0.0501,"RA_OF_ASC_NODE":39.683,"ARG_OF_PERICENTER":341.0618,"MEAN_ANOMALY":252.9264,"EPHEMERIS_TYPE":0,"CLASSIFICATION_TYPE":"U","NORAD_CAT_ID":35362,"ELEMENT_SET_NO":999,"REV_AT_EPOCH":730,"BSTAR":0,"MEAN_MOTION_DOT":-1.09e-6,"MEAN_MOTION_DDOT":0}]
