SL-12 R/B(2)            
1 33111U 08033D   26095.59726944  .00000038  00000+0  00000+0 0  9990
2 33111  10.4258  41.8214 0031602 336.8119  90.0697  1.00281750 65088
INTELSAT 25 (IS-25)     
1 33153U 08034A   26095.66745639 -.00000221  00000+0  00000+0 0  9992
2 33153   2.5205  81.1756 0002837 255.0194  66.5529  1.00270899 64969
ECHOSTAR 11             
1 33207U 08035A   26095.65194300 -.00000056  00000+0  00000+0 0  9991
2 33207   0.8173  84.9477 0002717 269.6096 324.2965  1.00271752 50483
SUPERBIRD-C2            
1 33274U 08038A   26095.84325384 -.00000303  00000+0  00000+0 0  9992
2 33274   2.1744  82.1468 0003475 357.7591 193.8187  1.00272959105002
INMARSAT 4-F3           
1 33278U 08039A   26095.40114177 -.00000138  00000+0  00000+0 0  9991
2 33278   4.2318  31.3483 0002735 350.7457 218.0409  1.00272246 45819
NIMIQ 4                 
1 33373U 08044A   26095.79998887 -.00000219  00000+0  00000+0 0  9993
2 33373   0.0186 235.4564 0002384 128.0148  36.6167  1.00272689 64257
GALAXY 19 (G-19)        
1 33376U 08045A   26095.65445634 -.00000138  00000+0  00000+0 0  9999
2 33376   0.0186 245.1199 0002944 139.4102 308.0342  1.00272657 64177
ASTRA 1M                
1 33436U 08057A   26095.82009561  .00000123  00000+0  00000+0 0  9996
2 33436   0.1112  75.4493 0003052 357.1367  76.1269  1.00272778 45015
EUTELSAT HOTBIRD 13C    
1 33459U 08065A   26095.80631556 -.00000280  00000+0  00000+0 0  9998
2 33459   2.7644  80.0257 0004166 304.6381  49.4327  1.00273225 46611
EXPRESS-AM44            
1 33595U 09007A   26095.81411559 -.00000086  00000+0  00000+0 0  9990
2 33595   3.2780  79.2648 0004347 297.8332  99.0978  1.00272479 51566
NSS-9                   
1 33749U 09008A   26095.78126878  .00000074  00000+0  00000+0 0  9991
2 33749   1.0743  83.2906 0002227 286.6065 288.4977  1.00272769 62790
TELSTAR 11N             
1 34111U 09009A   26095.80882889 -.00000249  00000+0  00000+0 0  9995
2 34111   0.0161 184.4980 0002388 186.3851  76.8478  1.00272802 45514
RADUGA-1 8              
1 34264U 09010A   26095.03673867  .00000071  00000+0  00000+0 0  9997
2 34264  11.9737  42.3922 0010600  20.5224 168.1152  0.99825419 62440
SL-12 R/B(2)            
1 34265U 09010B   26095.29905875 -.00000138  00000+0  00000+0 0  9998
2 34265  11.9673  42.3291 0003831 300.9602 225.8127  0.99995174 62463
WGS F2 (USA 204)        
1 34713U 09017A   26095.61374039  .00000000  00000+0  00000+0 0  9998
2 34713   0.0130 213.7312 0000352 216.0450  42.5790  1.00269989 44897
SES-7 (PROTOSTAR 2)     
1 34941U 09027A   26095.83770715 -.00000343  00000+0  00000+0 0  9998
2 34941   0.0927  78.5575 0001864 245.5108 279.8884  1.00271979 61900
MEASAT-3A               
1 35362U 09032A   26095.77667586 -.00000109  00000+0  00000+0 0  9996
2 35362   0.0501  39.6830 0003214 341.0618 252.9264  1.00272322  7308
